{
  "norad_id": 66717,
  "name": "FLOCK 4H-14",
  "history": [
    {
      "epoch": "2026-03-28T15:35:06.003456Z",
      "apogee_km": 506.762129776389,
      "perigee_km": 504.812602395913,
      "latitude_deg": 4.1731798635653016e-05,
      "longitude_deg": 102.91269111638789,
      "height_km": 509.6557863413592,
      "semi_major_axis_km": 6883.92436608615,
      "eccentricity": 0.0001416,
      "inclination_deg": 97.4255,
      "raan_deg": 162.7545,
      "arg_perigee_deg": 143.1264,
      "mean_anomaly_deg": 217.0069,
      "mean_motion_rev_day": 15.20017636
    },
    {
      "epoch": "2026-03-29T04:13:28.068384Z",
      "apogee_km": 506.72933321730943,
      "perigee_km": 504.77568537457137,
      "latitude_deg": 1.2555499406523049e-05,
      "longitude_deg": -86.67992662839904,
      "height_km": 509.622239395009,
      "semi_major_axis_km": 6883.88950929594,
      "eccentricity": 0.0001419,
      "inclination_deg": 97.4254,
      "raan_deg": 163.2729,
      "arg_perigee_deg": 143.0915,
      "mean_anomaly_deg": 217.0418,
      "mean_motion_rev_day": 15.20029181
    }
  ]
}